OBJECT_NAME,OBJECT_ID,EPOCH,MEAN_MOTION,ECCENTRICITY,INCLINATION,RA_OF_ASC_NODE,ARG_OF_PERICENTER,MEAN_ANOMALY,EPHEMERIS_TYPE,CLASSIFICATION_TYPE,NORAD_CAT_ID,ELEMENT_SET_NO,REV_AT_EPOCH,BSTAR,MEAN_MOTION_DOT,MEAN_MOTION_DDOT
STARLINK-35121,2025-216D,2026-07-04T06:18:47.959776,15.34416295,.00012481,53.1588,151.2706,91.0403,269.0742,0,U,65737,999,4439,.12891137E-2,.43454E-3,0
STARLINK-35108,2025-216E,2026-07-03T04:12:34.998912,15.30192641,.00014246,53.1594,156.5708,84.4170,275.6993,0,U,65738,999,4427,.84138317E-3,.24637E-3,0
STARLINK-35106,2025-216F,2026-07-03T04:11:03.402816,15.30194346,.00013798,53.1586,156.5578,96.1235,263.9923,0,U,65739,999,4419,.59448556E-3,.17286E-3,0
STARLINK-35130,2025-216G,2026-07-04T04:48:33.672672,15.30207641,.00008768,53.1581,151.5894,84.5434,275.5666,0,U,65740,999,4443,.61437131E-3,.17885E-3,0
STARLINK-35284,2025-216H,2026-07-04T00:00:02.999808,15.34391180,.00017891,53.1602,152.6653,98.9246,166.0631,0,U,65741,999,583,.14801032E-3,.4626E-4,0
STARLINK-35316,2025-216J,2026-07-04T06:00:02.999808,15.34363791,.00012042,53.1596,151.3109,84.7443,215.0432,0,U,65742,999,571,.11450545E-2,.38465E-3,0
STARLINK-35319,2025-216K,2026-07-04T04:19:40.919808,15.30220839,.00016659,53.1608,151.4637,91.7242,268.3950,0,U,65743,999,4443,.89400051E-3,.26229E-3,0
STARLINK-35173,2025-216L,2026-07-04T03:04:36.269184,15.32235170,.0002664,53.1585,151.8499,335.1926,24.8947,0,U,65744,999,4442,.36430439E-1,.125516E-1,0
STARLINK-34808,2025-216M,2026-07-04T04:10:34.258368,15.30212604,.00017299,53.1602,151.4219,91.3865,268.7334,0,U,65745,999,4435,.96524941E-3,.28349E-3,0
STARLINK-34704,2025-216N,2026-07-04T06:00:02.999808,15.34214890,.0002972,53.1598,151.5574,30.7623,141.2845,0,U,65746,999,485,.39119309E-2,.133384E-2,0
STARLINK-35214,2025-216P,2026-07-04T06:00:02.999808,15.34359367,.00020267,53.1588,151.3728,94.6599,170.2318,0,U,65747,999,580,.11534507E-2,.38747E-3,0
STARLINK-35265,2025-216Q,2026-07-04T04:23:47.816448,15.34416066,.00015564,53.1605,151.4844,97.6445,262.4735,0,U,65748,999,4330,.14940996E-2,.50471E-3,0
STARLINK-35288,2025-216R,2026-07-04T06:36:04.825440,15.31157014,.00052493,53.1587,151.3405,99.3422,260.8173,0,U,65749,999,4436,.20780256E-1,.685504E-2,0
STARLINK-35165,2025-216S,2026-07-04T04:29:31.625376,15.33571303,.00008093,53.1603,151.5049,96.0904,264.0190,0,U,65750,999,4435,.12372019E-2,.40565E-3,0
STARLINK-35260,2025-216T,2026-07-03T05:04:04.895328,15.30191428,.00011001,53.1577,156.0774,82.9278,277.1848,0,U,65751,999,4423,.6758162E-3,.19704E-3,0
STARLINK-34893,2025-216U,2026-07-04T00:00:02.999808,15.29839495,.00011277,53.1589,152.7709,92.3553,115.5587,0,U,65752,999,588,.42382466E-1,.1367246E-1,0
STARLINK-34894,2025-216V,2026-07-04T04:53:07.011168,15.30220899,.00015948,53.1580,151.6069,98.2116,261.9065,0,U,65753,999,4435,.91951109E-3,.26991E-3,0
STARLINK-35287,2025-216W,2026-07-04T04:15:07.616736,15.30209637,.00010711,53.1608,151.4398,78.8758,281.2363,0,U,65754,999,4434,.85048155E-3,.24922E-3,0
STARLINK-35294,2025-216X,2026-07-04T04:25:45.710976,15.30222353,.00017485,53.1583,151.4845,91.7112,268.4089,0,U,65755,999,4438,.10942233E-2,.32212E-3,0
STARLINK-35275,2025-216Y,2026-07-03T21:30:12.344544,15.30209401,.00015195,53.1591,153.2383,77.0389,283.0781,0,U,65756,999,4433,.97363714E-3,.28597E-3,0
STARLINK-35211,2025-216Z,2026-07-04T04:32:53.042784,15.34420502,.00025012,53.1583,151.5163,98.4105,261.7182,0,U,65757,999,4438,.94310378E-3,.31645E-3,0
STARLINK-35313,2025-216AA,2026-07-04T05:00:41.555520,15.30173300,.0001562,53.1582,151.6328,308.1580,51.9280,0,U,65758,999,4434,.97207145E-3,.28518E-3,0
STARLINK-34692,2025-216AB,2026-07-03T20:46:56.227584,15.34400576,.00015636,53.1611,153.0527,99.6079,260.5100,0,U,65759,999,4429,.80572376E-3,.26945E-3,0
STARLINK-34890,2025-216AC,2026-07-04T04:06:00.354816,15.30216505,.00010036,53.1607,151.4016,77.9743,282.1370,0,U,65760,999,4437,.15802102E-2,.46761E-3,0
STARLINK-34889,2025-216AD,2026-07-04T04:57:07.141824,15.34412615,.00007564,53.1606,151.6228,69.6303,290.4781,0,U,65761,999,4443,.86360232E-3,.28926E-3,0
STARLINK-35330,2025-218A,2026-07-03T20:19:56.594784,15.05662065,.00023535,97.2851,45.7627,82.3798,277.7697,0,U,65791,999,4244,.29966436E-3,.4271E-4,0
STARLINK-35373,2025-218B,2026-07-04T01:54:53.939808,15.05665182,.00020852,97.2855,46.0596,89.4550,270.6916,0,U,65792,999,4248,.37030622E-3,.5293E-4,0
STARLINK-35383,2025-218C,2026-07-03T20:43:53.806944,15.05652877,.00030183,97.2834,45.8956,88.5835,271.5738,0,U,65793,999,4245,.75180651E-3,.10809E-3,0
STARLINK-35378,2025-218D,2026-07-03T13:45:10.765728,15.05663873,.00018756,97.2859,45.5229,89.4577,270.6865,0,U,65794,999,4240,.36705381E-3,.5245E-4,0
STARLINK-35406,2025-218E,2026-07-04T00:43:07.444992,15.05660066,.0001964,97.2862,45.9735,81.2020,278.9430,0,U,65795,999,4247,.72834E-3,.10471E-3,0
