STARLINK-35121          
1 65737U 25216D   26185.26305509  .00043454  00000+0  12891-2 0  9998
2 65737  53.1588 151.2706 0001248  91.0403 269.0742 15.34416295 44394
STARLINK-35108          
1 65738U 25216E   26184.17540508  .00024637  00000+0  84138-3 0  9994
2 65738  53.1594 156.5708 0001424  84.4170 275.6993 15.30192641 44275
STARLINK-35106          
1 65739U 25216F   26184.17434494  .00017286  00000+0  59449-3 0  9990
2 65739  53.1586 156.5578 0001379  96.1235 263.9923 15.30194346 44191
STARLINK-35130          
1 65740U 25216G   26185.20038973  .00017885  00000+0  61437-3 0  9994
2 65740  53.1581 151.5894 0000876  84.5434 275.5666 15.30207641 44430
STARLINK-35284          
1 65741U 25216H   26185.00003472  .00004626  00000+0  14801-3 0  9991
2 65741  53.1602 152.6653 0001789  98.9246 166.0631 15.34391180  5837
STARLINK-35316          
1 65742U 25216J   26185.25003472  .00038465  00000+0  11451-2 0  9994
2 65742  53.1596 151.3109 0001204  84.7443 215.0432 15.34363791  5714
STARLINK-35319          
1 65743U 25216K   26185.18033472  .00026229  00000+0  89400-3 0  9995
2 65743  53.1608 151.4637 0001665  91.7242 268.3950 15.30220839 44431
STARLINK-35173          
1 65744U 25216L   26185.12819756  .01255160  00000+0  36430-1 0  9999
2 65744  53.1585 151.8499 0002664 335.1926  24.8947 15.32235170 44426
STARLINK-34808          
1 65745U 25216M   26185.17400762  .00028349  00000+0  96525-3 0  9997
2 65745  53.1602 151.4219 0001729  91.3865 268.7334 15.30212604 44353
STARLINK-34704          
1 65746U 25216N   26185.25003472  .00133384  00000+0  39119-2 0  9995
2 65746  53.1598 151.5574 0002972  30.7623 141.2845 15.34214890  4859
STARLINK-35214          
1 65747U 25216P   26185.25003472  .00038747  00000+0  11535-2 0  9995
2 65747  53.1588 151.3728 0002026  94.6599 170.2318 15.34359367  5801
STARLINK-35265          
1 65748U 25216Q   26185.18319232  .00050471  00000+0  14941-2 0  9994
2 65748  53.1605 151.4844 0001556  97.6445 262.4735 15.34416066 43306
STARLINK-35288          
1 65749U 25216R   26185.27505585  .00685504  00000+0  20780-1 0  9991
2 65749  53.1587 151.3405 0005249  99.3422 260.8173 15.31157014 44362
STARLINK-35165          
1 65750U 25216S   26185.18717159  .00040565  00000+0  12372-2 0  9996
2 65750  53.1603 151.5049 0000809  96.0904 264.0190 15.33571303 44352
STARLINK-35260          
1 65751U 25216T   26184.21116777  .00019704  00000+0  67582-3 0  9994
2 65751  53.1577 156.0774 0001100  82.9278 277.1848 15.30191428 44236
STARLINK-34893          
1 65752U 25216U   26185.00003472  .01367246  00000+0  42382-1 0  9997
2 65752  53.1589 152.7709 0001127  92.3553 115.5587 15.29839495  5885
STARLINK-34894          
1 65753U 25216V   26185.20355337  .00026991  00000+0  91951-3 0  9996
2 65753  53.1580 151.6069 0001594  98.2116 261.9065 15.30220899 44358
STARLINK-35287          
1 65754U 25216W   26185.17717149  .00024922  00000+0  85048-3 0  9998
2 65754  53.1608 151.4398 0001071  78.8758 281.2363 15.30209637 44341
STARLINK-35294          
1 65755U 25216X   26185.18455684  .00032212  00000+0  10942-2 0  9994
2 65755  53.1583 151.4845 0001748  91.7112 268.4089 15.30222353 44386
STARLINK-35275          
1 65756U 25216Y   26184.89597621  .00028597  00000+0  97364-3 0  9995
2 65756  53.1591 153.2383 0001519  77.0389 283.0781 15.30209401 44338
STARLINK-35211          
1 65757U 25216Z   26185.18950281  .00031645  00000+0  94310-3 0  9990
2 65757  53.1583 151.5163 0002501  98.4105 261.7182 15.34420502 44386
STARLINK-35313          
1 65758U 25216AA  26185.20881430  .00028518  00000+0  97207-3 0  9996
2 65758  53.1582 151.6328 0001562 308.1580  51.9280 15.30173300 44345
STARLINK-34692          
1 65759U 25216AB  26184.86592856  .00026945  00000+0  80572-3 0  9998
2 65759  53.1611 153.0527 0001563  99.6079 260.5100 15.34400576 44297
STARLINK-34890          
1 65760U 25216AC  26185.17083744  .00046761  00000+0  15802-2 0  9997
2 65760  53.1607 151.4016 0001003  77.9743 282.1370 15.30216505 44376
STARLINK-34889          
1 65761U 25216AD  26185.20633266  .00028926  00000+0  86360-3 0  9993
2 65761  53.1606 151.6228 0000756  69.6303 290.4781 15.34412615 44436
STARLINK-35330          
1 65791U 25218A   26184.84718281  .00004271  00000+0  29966-3 0  9994
2 65791  97.2851  45.7627 0002353  82.3798 277.7697 15.05662065 42448
STARLINK-35373          
1 65792U 25218B   26185.07979097  .00005293  00000+0  37031-3 0  9992
2 65792  97.2855  46.0596 0002085  89.4550 270.6916 15.05665182 42481
STARLINK-35383          
1 65793U 25218C   26184.86381721  .00010809  00000+0  75181-3 0  9997
2 65793  97.2834  45.8956 0003018  88.5835 271.5738 15.05652877 42455
STARLINK-35378          
1 65794U 25218D   26184.57304127  .00005245  00000+0  36705-3 0  9998
2 65794  97.2859  45.5229 0001875  89.4577 270.6865 15.05663873 42409
STARLINK-35406          
1 65795U 25218E   26185.02994728  .00010471  00000+0  72834-3 0  9992
2 65795  97.2862  45.9735 0001964  81.2020 278.9430 15.05660066 42479
